,Unnamed: 0,number,contract_name,name,address,banking,bonus,bike_stands,available_bike_stands,available_bikes,status,last_update,lat,lng
0,0,55,toulouse,00055 - ST-SERNIN - GATIEN - ARNOULT,2 RUE GATIEN ARNOULT,False,False,15,13,1,OPEN,1761038000000,43.609022,1.441105
1,1,385,toulouse,00385 - VITARELLES - FRONDE,"21, chemin de la Fronde",False,False,13,8,5,OPEN,1761038025000,43.587323,1.39462
2,2,195,toulouse,00195 - RIEUX - CHANT DU MERLE,FACE 15 RUE PIERRE LAROUSSE,False,False,18,11,7,OPEN,1761038085000,43.597355,1.459063
3,3,29,toulouse,00029 - VALADE,31 RUE VALADE,False,False,21,1,20,OPEN,1761038178000,43.605031,1.437386
4,4,400,toulouse,00400 - SAINT-MARTIN-DU-TOUCH GARE,"4, rue Marie Louise Dissard (sur la contre allée face au parking de la halte)",False,False,13,8,5,OPEN,1761037704000,43.600614,1.372218
5,5,280,toulouse,00280 - CHARBONNIÈRE - PALMIERS,RUE DE LA CHARBONNIERE ENTRE IMP AMPERE ET RUE DES PALMIERS,False,False,18,14,4,OPEN,1761038164000,43.573732,1.448768
6,6,156,toulouse,00156 - EMPALOT - MÉTRO,38 AV JEAN MOULIN FACE DEBOUCHE RUE DE CANNES,True,False,18,1,14,OPEN,1761038137000,43.579666,1.44184
7,7,242,toulouse,00242 - RIMBAUD - COLETTE / PADER - FRONTON,8 RUE HILAIRE PADER,False,False,16,5,9,OPEN,1761038020000,43.63639,1.433072
9,9,224,toulouse,00224 - BELIN - SUPAERO,10 AV EDOUARD BELIN FACE CHATEAU D'EAU CREPS RD-PT JEAN LAGASSE,False,False,20,6,14,OPEN,1761037954000,43.56644,1.475301
10,10,339,toulouse,00339 -  GLOIRE - SAVIGNAC,"57, rue Labat de Savignac, 40m après angle rue de la Gloire",False,False,13,11,0,OPEN,1761037729000,43.605899,1.463601
11,11,229,toulouse,00229 - AV. DE RANGUEIL - PELUDE,129 AV DE RANGUEIL,False,False,18,0,16,OPEN,1761038070000,43.57141,1.462732
12,12,154,toulouse,00154 - HOTEL DE REGION,50 M AVANT 4 RUE DES GALLOIS,False,False,19,16,1,OPEN,1761038160000,43.589928,1.441706
13,13,96,toulouse,00096 - MÉDIATHÈQUE JOSÉ CABANIS,50 RUE DU GENERAL COMPANS,True,False,25,22,2,OPEN,1761038165000,43.609757,1.455212
14,14,65,toulouse,00065 - VERDIER - GRAND ROND,2 ALL FORAIN FRANCOIS VERDIER,False,False,27,24,2,OPEN,1761037971000,43.596904,1.452596
15,15,22,toulouse,00022 - CARNOT - ROLAND,24 BD LAZARE CARNOT,False,False,20,14,3,OPEN,1761037950000,43.602914,1.451719
16,16,236,toulouse,00236 - TOEC - LEMIRE,RUE DE L'ABBE JULES LEMIRE ANGLE VOIE DU TOEC,False,False,20,8,12,OPEN,1761038129000,43.597322,1.403694
17,17,315,toulouse,000315 - FRONTON - LAPIN,"269, Avenue de Fronton",False,False,13,11,1,OPEN,1761038031000,43.651176,1.432557
18,18,111,toulouse,00111 - BD DES MINIMES - PASSERELLE,38B BD DES MINIMES,False,False,27,24,2,OPEN,1761038157000,43.615273,1.442937
19,19,152,toulouse,00152 - THÉATRE DES MAZADES,10 AV DES MAZADES,False,False,20,15,0,OPEN,1761037970000,43.624114,1.438463
20,20,243,toulouse,00243 - ÉTATS-UNIS - FERRY,FACE 97 AV DES ETATS-UNIS ANGLE JULES FERRY,False,False,17,9,8,OPEN,1761037963000,43.632734,1.431732
22,22,334,toulouse,00334  - GLOIRE - SAINT BERNARD,"1, rue Saint-Bertrand",False,False,13,6,3,OPEN,1761038149000,43.605557,1.458483
23,23,174,toulouse,00174 - BOURGES - MAUNOURY - MÉLAT,41 AV MAURICE BOURGES MAUNOURY,False,False,19,7,9,OPEN,1761037935000,43.63694,1.452615
24,24,298,toulouse,00298 - ROUTE DE SEYSSES - C. DE VICOSE,Route de Seysses - C. de Viçose,False,False,13,1,11,OPEN,1761038171000,43.57179,1.418239
25,25,276,toulouse,00276 - MARIN - REBOUL,FACE 1 CHEMIN DU MARIN,False,False,18,8,10,OPEN,1761038076000,43.581463,1.379769
26,26,77,toulouse,00077 - SAINT-CYPRIEN - METRO VIÉ,2 PL INTERIEURE SAINT-CYPRIEN,False,False,13,2,11,OPEN,1761037617000,43.59778,1.431619
27,27,137,toulouse,00137 - BRUNHES - FONTAINES,68 BD JEAN BRUNHES FACE AU 53,False,False,15,12,3,OPEN,1761038149000,43.600473,1.420165
28,28,295,toulouse,00295 - PLACE GUY HERSANT,"Place Guy Hersant, angle rue Alfred Rambaud",False,False,13,12,0,OPEN,1761038076000,43.577461,1.442964
29,29,348,toulouse,00348 - REVEL - LABEGE,", Rond-point route de Revel / route de Labège face Jardiland et Midas,",False,False,13,0,13,OPEN,1761038171000,43.570862,1.49832
30,30,3002,toulouse,03002 - DOUMERGUE - DAUDET,"Face 142, rue Gaston Doumergue - Tournefeuille",False,False,16,9,7,OPEN,1761037915000,43.586113,1.352169
31,31,144,toulouse,00144 - SUISSE - LAUSANNE,62 BD DE SUISSE,False,False,22,18,4,OPEN,1761038003000,43.615988,1.42163
32,32,5001,toulouse,05001 - RAMONVILLE MÉTRO,Avenue Flora Tristan sur le côté sud du bâtiment d’accès métro - Ramonville,True,False,16,1,4,OPEN,1761037948000,43.55563,1.476132
33,33,40,toulouse,00040 - COLOMBETTE - MAURY,41 RUE DE LA COLOMBETTE,False,False,16,13,3,OPEN,1761037687000,43.604565,1.453659
34,34,25,toulouse,00025 - PLACE ROUAIX,1 RUE DES TOURNEURS,False,False,18,3,14,OPEN,1761038179000,43.599525,1.445544
35,35,74,toulouse,00074 - LAGANNE - TEINTURIERS,37 RUE LAGANNE,False,False,18,9,9,OPEN,1761037952000,43.596667,1.436229
36,36,371,toulouse,00371 - REYNERIE - LONDRES,"9, rue de Londres",False,False,13,2,11,OPEN,1761037841000,43.569148,1.408256
37,37,71,toulouse,00071 - FER A CHEVAL - COURS DILLON,3 RUE LAGANNE,False,False,22,17,1,OPEN,1761037849000,43.593227,1.435062
38,38,105,toulouse,00105 - BILLIÈRE - CHAMPETRE,12  AV  ETIENNE  BILLIERES,False,False,18,10,6,OPEN,1761038023000,43.597539,1.428891
39,39,329,toulouse,00329 - ATLANTA - CAUNES,Face dépot Tisséo sur avenue Atlanta,False,False,13,10,3,OPEN,1761037713000,43.64046,1.469314
40,40,64,toulouse,00064 - PERI - MERCADIER,30 RUE GABRIEL PERI,False,False,24,21,2,OPEN,1761038037000,43.606208,1.455005
41,41,3,toulouse,00003 - ALSACE - LORRAINE - POMME,62 RUE DE LA POMME,False,False,18,0,16,OPEN,1761038190000,43.603302,1.445454
42,42,93,toulouse,00093 - BD MATABIAU - INGRES,57 RUE DU PRINTEMPS,False,False,17,10,7,OPEN,1761038032000,43.614574,1.443571
43,43,139,toulouse,00139 - BARRIERE DE LOMBEZ,39 BIS AV DE LOMBEZ,False,False,25,2,22,OPEN,1761038083000,43.595503,1.418503
44,44,81,toulouse,00081 - JARDIN RAYMOND VI,ALLEE CHARLES DE FITTE / FACE JARDIN RAYMOND VI,False,False,33,27,6,OPEN,1761037949000,43.599797,1.429521
45,45,60,toulouse,00060 - PLACE ROQUELAINE,32 PL ROQUELAINE,False,False,24,21,1,OPEN,1761037773000,43.612615,1.448286
46,46,36,toulouse,00036 - PLACE ROBERT SCHUMAN,5 PL ROBERT SCHUMAN,True,False,19,8,10,OPEN,1761038196000,43.609622,1.449431
47,47,227,toulouse,00227 - UNIV. PAUL SABATIER MÉTRO,118  RTE DE NARBONNE,True,False,32,12,18,OPEN,1761038164000,43.561074,1.462928
48,48,248,toulouse,00248 - ROSTAND - BOUQUETINS,RUE DES BOUQUETINS ANGLE RUE EDMOND ROSTAND,False,False,20,11,9,OPEN,1761037952000,43.641013,1.448524
49,49,53,toulouse,00053 - PLACE SAINT-JULIEN,PLACE SAINT JULIEN,False,False,25,10,14,OPEN,1761037972000,43.608639,1.436965
51,51,379,toulouse,00379 - MAFFRE - BASSO CAMBO,"Rue Robert Maffre, face 123, chemin de Basso Cambo",False,False,13,9,4,OPEN,1761038074000,43.561453,1.384967
52,52,187,toulouse,00187 - DESBALS - FIEUX,187 RUE HENRI DESBALS,False,False,17,4,13,OPEN,1761038082000,43.58456,1.415683
53,53,87,toulouse,00087 - LASCROSSES - LECLERC,47 BD LASCROSSES,False,False,25,12,13,OPEN,1761038138000,43.609277,1.432157
54,54,358,toulouse,00358 - SALADE PONSAN - COTEAUX,"2, rue Thomas Edison",False,False,13,13,0,OPEN,1761038172000,43.567744,1.451907
55,55,346,toulouse,00346 - CITE DE L'ESPACE,Parking Cité de l’Espace le long de l’avenue Jean Gonord,True,False,13,3,9,OPEN,1761038196000,43.586894,1.492386
56,56,305,toulouse,00305 - ZENITH TRAMWAY,"Face 151, avenue de Grande-Bretagne / Massonié",False,False,13,3,9,OPEN,1761038072000,43.601356,1.411617
57,57,225,toulouse,00225 - BELIN - ONERA,4 AV EDOUARD BELIN DEVANT ONERA FACE AU CREPS,False,False,20,12,8,OPEN,1761038028000,43.570117,1.473463
58,58,397,toulouse,00397 - NÉGO SAOUMOS - ZIEGLER,"50m avant 5, rue Négo Saoumos",False,False,13,1,12,OPEN,1761038138000,43.605637,1.364053
59,59,381,toulouse,00381 - LIFFARD - REGUELONGUE,Liffard - Règuelongue,False,False,13,11,2,OPEN,1761037829000,43.55978,1.37828
60,60,121,toulouse,00121 - SERRES - ARNAUD BERNARD,33 AV HONORE SERRES,False,False,17,16,1,OPEN,1761037792000,43.612627,1.438268
61,61,84,toulouse,00084 - BRIENNE - MANUFACTURE,19T ALL DE BRIENNE,True,False,24,6,17,OPEN,1761038126000,43.605381,1.432485
62,62,208,toulouse,00208 - BAROUX - LIMAYRAC,"Avenue Lucien Baroux, face parking Place Auguste Albert",False,False,18,14,3,OPEN,1761037792000,43.591603,1.479018
63,63,131,toulouse,00131 - ROUTE DE BLAGNAC - BERNIES,15 RUE PAUL BERNIES,True,False,19,6,12,OPEN,1761037796000,43.611584,1.414669
64,64,3004,toulouse,03004 - MONTEL - LANGUEDOC,"Devant 17, boulevard Eugène Montel - Tournefeuille",False,False,16,6,10,OPEN,1761038186000,43.585029,1.342821
65,65,368,toulouse,00368 - ROUTE DE SEYSSES - BELLEFONTAINE,"Face 10, allée Bellefontaine",False,False,13,8,5,OPEN,1761038183000,43.562792,1.406829
66,66,239,toulouse,00239 - LESPINET - HERBETTES,ANGLE AVENUE DE LESPINET ET RUE GEORGES BIDAULT,False,False,25,15,10,OPEN,1761037943000,43.576637,1.470245
67,67,1,toulouse,00001 - POIDS DE L'HUILE,12 RUE DU POIDS DE L'HUILE,False,False,19,1,17,OPEN,1761038171000,43.60419,1.445475
68,68,37,toulouse,00037 - STE - LUCIE - ARCS ST - CYPRIEN,53 RUE SAINTE-LUCIE,False,False,18,15,2,OPEN,1761038179000,43.593516,1.430039
69,69,7,toulouse,00007 - PLACE VICTOR HUGO,6 RUE DU REMPART VILLENEUVE,False,False,25,4,21,OPEN,1761038020000,43.605777,1.446507
70,70,259,toulouse,00259 - PLACE PAUL RICHÉ,PL PAUL RICHE A COTE 231 AV DE FRONTON,True,False,20,13,7,OPEN,1761037710000,43.647504,1.43286
71,71,367,toulouse,00367 - PARC DE GIRONIS,Parking salle des fêtes de Lafourguette,False,False,13,9,3,OPEN,1761038127000,43.564067,1.413739
72,72,304,toulouse,00304 - CARTOUCHERIE TRAMWAY,Place de la Charte des Libertes (le long du tram),False,False,13,1,11,OPEN,1761038069000,43.602797,1.408133
73,73,297,toulouse,00297 - AV. DE MURET - DUBOUL,"3, rue Axel Duboul - Carrefour avenue de Muret",False,False,13,9,2,OPEN,1761038140000,43.57981,1.4237
74,74,234,toulouse,00234 - RAYNAL - LOUIN,50M APRES 4 RUE PIERRETTE LOUIN,False,False,15,11,4,OPEN,1761037723000,43.628145,1.451413
75,75,192,toulouse,00192 - RE DE ST - SIMON - PRADO,355 ROUTE DE SAINT-SIMON,False,False,20,18,1,OPEN,1761037865000,43.587845,1.409785
76,76,48,toulouse,00048 - PLACE DU SALIN,18 PL DU SALIN,False,False,32,10,21,OPEN,1761038063000,43.594461,1.443822
77,77,175,toulouse,00175 - BORDEROUGE - MÉTRO,FACE 52 AV BOURGES MAUNOURY,True,False,30,5,24,OPEN,1761038151000,43.639633,1.452569
78,78,266,toulouse,00266 - TOURAINE - AUVERGNE,38 RUE DE LA TOURAINE,False,False,20,5,14,OPEN,1761038102000,43.573708,1.41394
79,79,386,toulouse,00386 - BORDEBLANCHE - BROUSSIN,"16, chemin de Bordeblanche",False,False,13,11,2,OPEN,1761038092000,43.582717,1.386115
80,80,166,toulouse,00166 - RANGUEIL - MÉTRO,23 RUE GUYOU,False,False,20,10,10,OPEN,1761038136000,43.57421,1.462367
81,81,135,toulouse,00135 - BONNEFOY - LEMAITRE,179 RUE DU FAUBOURG BONNEFOY,False,False,18,11,5,OPEN,1761038046000,43.622963,1.458647
82,82,79,toulouse,00079 - VIGUERIE -  LANGE,1 PL LANGE,False,False,20,13,6,OPEN,1761037688000,43.601016,1.434129
83,83,210,toulouse,00210 - TERRASSE - MONT VENTOUX,FACE 42 CHE DE LA TERRASSE,False,False,18,15,1,OPEN,1761037730000,43.586086,1.482942
84,84,75,toulouse,00075 - CHATEAU D'EAU,12 PLACE LAGANNE,True,False,21,1,14,OPEN,1761038048000,43.59859,1.436594
85,85,5004,toulouse,05004 - POMPIDOU - MARNAC,"Face 9, allée Georges Pompidou - Ramonville",False,False,16,4,3,OPEN,1761037900000,43.548859,1.477414
86,86,1031,toulouse,1031 - BORNE CGB ATELIER,16 rue Brouardel,False,False,12,6,5,OPEN,1761038066000,43.6159088,1.0001755
87,87,115,toulouse,00115 - DUMERIL - SAINT JOSEPH,FACE 104 RUE ALFRED DUMERIL,False,False,18,15,1,OPEN,1761037708000,43.591224,1.452159
88,88,221,toulouse,00221 - AV. DE REYNERIE - VAUQUELIN,FACE 85 RUE VAUQUELIN,False,False,20,2,18,OPEN,1761038123000,43.576221,1.406355
89,89,294,toulouse,00294 - ILE DU RAMIER - PASSERELLE CONTI,ILE DU RAMIER - PASSERELLE CONTI,False,False,13,8,4,OPEN,1761037873000,43.580259,1.434156
90,90,128,toulouse,00128 - SAINT-MICHEL - CASTELET,18 B GRANDE RUE ST MICHEL,True,False,24,18,2,OPEN,1761038010000,43.58585,1.447374
91,91,375,toulouse,00375 - LESTAND - PERGAUD,"32, chemin de Lestang – passage Louis Pergaud",False,False,13,1,11,OPEN,1761037665000,43.564715,1.395886
92,92,67,toulouse,00067 - GUESDE - OZENNE,35 ALL JULES GUESDE,False,False,22,7,13,OPEN,1761038151000,43.594812,1.449176
93,93,1002,toulouse,01002 - FRONTON - ALLENDE,Avenue Salvador Allende – parking face restaurant « la côte et l’arête » - Aucamville,False,False,16,7,8,OPEN,1761038101000,43.661581,1.43105
94,94,188,toulouse,00188 - AV. DE MURET - LAFAGE,121 AVENUE DE MURET,False,False,20,9,9,OPEN,1761038039000,43.584339,1.427597
95,95,118,toulouse,00118 - PLACE DU BUSCA,PLACE DU BUSCA / FACE ECOLE JEAN JAURES,False,False,16,9,5,OPEN,1761038137000,43.588588,1.451003
96,96,354,toulouse,00354 - DAURAT - CORNEMONT,"2, rue René Cornemont - Face rond-point Henri Erable",False,False,13,0,9,OPEN,1761038098000,43.56481,1.488996
97,97,178,toulouse,00178 - BRUNAUD - PLANA,FACE 100 AV YVES BRUNAUD,True,False,20,9,9,OPEN,1761038155000,43.619291,1.468681
98,98,341,toulouse,00341 - SOUPETARD - GENÊTS,"42, rue Soupetard",False,False,13,8,5,OPEN,1761038110000,43.610183,1.472401
99,99,41,toulouse,00041 - RIQUET - CAMICHEL,1 RUE CHARLES CAMICHEL,False,False,21,10,11,OPEN,1761037816000,43.602708,1.454367
100,100,90,toulouse,00090 - LASCROSSES - ARNAUD BERNARD,3B BD LASCROSSES,False,False,25,23,0,OPEN,1761037788000,43.611271,1.438093
101,101,68,toulouse,00068  PALAIS DE JUSTICE - METRO,1 BIS ALLEE JULES GUESDE,True,False,16,7,3,OPEN,1761038027000,43.592782,1.444726
102,102,147,toulouse,00147 - CHAUSSAS - DAUDET,96 RUE DE CHAUSSAS,False,False,19,14,5,OPEN,1761038189000,43.619704,1.429176
103,103,1001,toulouse,01001 - AUCAMVILLE MAIRIE,"101, Route de fronton - Aucamville",False,False,16,10,6,OPEN,1761038033000,43.667507,1.429317
104,104,406,toulouse,00406 - LARDENNE - MAXWELL,"Face 343, avenue de Lardenne et du groupe scolaire Emilie Chatelet",False,False,16,11,5,OPEN,1761038165000,43.590272,1.367674
105,105,109,toulouse,00109 - HOTEL DE DÉPARTEMENT,1 BD DE LA MARQUETTE,False,False,25,12,13,OPEN,1761037893000,43.615275,1.434944
106,106,2007,toulouse,02007 - BLAGNAC MAIRIE,"Place Jean-Louis Puig, face mairie - Blagnac",True,False,16,4,12,OPEN,1761037811000,43.634559,1.397157
107,107,153,toulouse,00153 - PLACE ANTONIN FROIDURE,12 AV BOURGES MAUNOURY,False,False,18,4,14,OPEN,1761037982000,43.628672,1.448469
109,109,262,toulouse,00262 - ARTHAUD - NETWILLER,RON?D-POINT NETWILLER - BORDEROUGE,False,False,18,5,13,OPEN,1761038001000,43.643358,1.455501
110,110,399,toulouse,00399 - CHEMIN DE TOURNEFEUILLE - BOURIETTE,"Parking, 212 chemin de Tournefeuille",False,False,13,11,2,OPEN,1761038196000,43.605078,1.376499
111,111,197,toulouse,00197 - PUJOL - PÉRIGNON,6 AV LOUIS BLERIOT,True,False,20,19,0,OPEN,1761037601000,43.600361,1.464039
112,112,336,toulouse,00336 - COLONNE - SALONIQUE,"Face 90, avenue de la Colonne, 30 m après angle rue de Caillibens",False,False,13,9,1,OPEN,1761038131000,43.610556,1.464953
113,113,388,toulouse,00388 - LARDENNE - CALQUET,"Face au 145, avenue de Lardenne / Chemin de Calquet",False,False,13,4,8,OPEN,1761038157000,43.5937364,1.3911254
114,114,23,toulouse,00023 - CARNOT - IDRAC,6 BD LAZARE CARNOT,True,False,26,20,6,OPEN,1761038056000,43.601372,1.452038
115,115,396,toulouse,00396 - FOURNIER - JARDINERIE,Rue Alain Fournier,False,False,13,9,4,OPEN,1761038127000,43.606486,1.36915
116,116,183,toulouse,00183 - RUE DE CUGNAUX - GRAVETTE,RUE DE CUGNAUX,False,False,18,12,6,OPEN,1761037935000,43.593147,1.424313
117,117,376,toulouse,00376 - EISENHOWER - LESTANG,"Avenue du général Eisenhower, face au collège Saint Simon",False,False,13,10,3,OPEN,1761038029000,43.5599624,1.3944267
118,118,338,toulouse,00338 - GUILLAUMET - CEAT,"Face 24, avenue Henri Guillaumet (nouveau quartier)",False,False,13,10,3,OPEN,1761038186000,43.61445,1.469636
119,119,126,toulouse,00126 - BONNEFOY - ARAGO,18 RUE BONNEFOY,False,False,22,20,2,OPEN,1761038179000,43.616939,1.454243
120,120,255,toulouse,00255 - SELLIER - MOUETTES,2 RUE DES MOUETTES / ANGLE ALL HENRI SELLIER,False,False,16,14,2,OPEN,1761038042000,43.576893,1.440049
121,121,233,toulouse,00233 - NARBONNE - SAHUQUE,FACE 88 RTE DE NARBONNE STATION ESSO,False,False,20,4,16,OPEN,1761037996000,43.566528,1.458648
122,122,254,toulouse,00254 - VESTREPAIN - LOT,RUE DU LOT / 100M AVANT LA RUE VESTREPAIN,False,False,18,7,11,OPEN,1761038099000,43.583264,1.407055
123,123,21,toulouse,00021 - CARNOT - LABEDA,63 BD LAZARE CARNOT,False,False,25,16,8,OPEN,1761037850000,43.604079,1.450158
124,124,62,toulouse,00062 - JAURES - BONREPOS,81 ALLEE JEAN JAURES,False,False,24,19,3,OPEN,1761037810000,43.609222,1.453542
125,125,370,toulouse,00370 - PLACE DES TIBAOUS,"Face 11 et 13, rue Missak Manouchian",False,False,13,3,9,OPEN,1761037961000,43.550424,1.386158
126,126,244,toulouse,00244 - RENAN - VITRY,93 RUE ERNEST RENAN ANGLE RUE VITRY,False,False,18,3,15,OPEN,1761038078000,43.635856,1.443828
127,127,24,toulouse,00024 - PLACE SAINT-ETIENNE,14 PL SAINT-ETIENNE,False,False,22,16,5,OPEN,1761037990000,43.600055,1.449273
128,128,245,toulouse,00245 - GRANDE-BRETAGNE - BADIOU,103 BIS AV DE GRANDE BRETAGNE ANGLE RUE BADIOU,False,False,19,4,14,OPEN,1761038065000,43.599732,1.415372
129,129,196,toulouse,00196 - PUJOL - GOUJON,6 RUE JEAN GOUJON,False,False,20,18,2,OPEN,1761038149000,43.601719,1.458019
130,130,281,toulouse,00281 - JARDIN NIEL,FACE 80 RUE SAINT ROCH / ANGLE AC DU 14EME REGIMENT D'INFANTERIE,False,False,18,15,1,OPEN,1761038077000,43.578687,1.446733
131,131,260,toulouse,00260 - FRONTON - DUCLOS,RUE LEONCE DUCLOS / ANGLE AV DE FRONTON FACE 26 IMP DU BARON,False,False,18,15,3,OPEN,1761037921000,43.644963,1.433998
132,132,228,toulouse,00228 - FAC. DE PHARMACIE MÉTRO,FACE 35 CHEMIN DES MARAICHERS,True,False,18,2,15,OPEN,1761038139000,43.568165,1.464353
133,133,124,toulouse,00124 - EGLISE DES MINIMES,27 AV DES MINIMES,False,False,18,12,6,OPEN,1761038025000,43.618287,1.436857
134,134,207,toulouse,00207 - MAL CLABEL - AUDE,FACE 25 RUE DE L AUDE,False,False,17,12,5,OPEN,1761038194000,43.583202,1.481757
135,135,11,toulouse,00011 - PLACE DE LA DAURADE,2 PL DE LA DAURADE,True,False,23,19,3,OPEN,1761038084000,43.601888,1.440368
136,136,319,toulouse,00319 - ROUTE DE LAUNAGUET - DELBO,"Rond-point, 50m avant 283, route de Launaguet",False,False,13,12,1,OPEN,1761038045000,43.651318,1.438377
137,137,186,toulouse,00186 - DESBALS - BOUALAM,1 IMPASSE BACHAGA BOUALAM,False,False,18,1,16,OPEN,1761038134000,43.579171,1.410939
138,138,235,toulouse,00235 - LA VACHE MÉTRO,FACE AU 8 RUE PAUL VERLAINE,True,False,19,13,6,OPEN,1761038069000,43.633454,1.435519
139,139,288,toulouse,000288 - METZ - MARCHANDS,28 RUE DES MARCHANDS,False,False,36,26,9,OPEN,1761037651000,43.600021,1.44293
140,140,394,toulouse,00394 - BAYONNE - FLAMBERE,"73, route de Bayonne",False,False,13,12,1,OPEN,1761038136000,43.608267,1.389792
141,141,150,toulouse,00150 - CURIE - CAMPISTRON,78 BD PIERRE ET MARIE CURIE,False,False,18,17,1,OPEN,1761037800000,43.62563,1.439513
142,142,252,toulouse,00252 - CATELLAN - CAZENEUVE,RUE MARIE CLAIRE DE CATELLAN (10M AVANT LE PONT SNCF LE LONG DE LA PISTE CYCLABE),False,False,18,7,9,OPEN,1761038174000,43.626914,1.444986
143,143,184,toulouse,00184 - MICHOUN - HYERES,70 CHEMIN MICHOUN,False,False,20,14,3,OPEN,1761037999000,43.62724,1.469293
144,144,271,toulouse,00271 - ANCELY TRAMWAY,FACE 151 AV DES ARENES ROMAINES,False,False,20,10,10,OPEN,1761038064000,43.619301,1.396986
145,145,33,toulouse,00033 - SAINT - BERNARD - BERALDI,11 RUE HENRI BERALDI,False,False,15,14,1,OPEN,1761037825000,43.608605,1.4436
146,146,402,toulouse,00402 - GRYNFOGEL - GAILLARDIE,"Face 130, Chemin de Gaillardie",False,False,16,14,2,OPEN,1761037833000,43.579985,1.37018
147,147,161,toulouse,00161 - AV . DE RANGUEIL  - BEDOUCE,35 AV DE RANGUEIL,False,False,15,5,9,OPEN,1761037708000,43.576773,1.454742
148,148,172,toulouse,00172 - NETWILLER - EBELOT,RD-PT DE L'ABBE LAFFORGUE ANGLE RUE HENRI EBELOT,False,False,20,7,13,OPEN,1761037999000,43.642859,1.461124
149,149,391,toulouse,00391 - LARDENNE GARE,"Face 10, chemin de Capelles",False,False,13,8,5,OPEN,1761037804000,43.597343,1.383108
150,150,120,toulouse,00120 - BARCELONE - SANIERES,152 ALL DE BARCELONE,False,False,18,13,4,OPEN,1761038107000,43.610343,1.420407
151,151,268,toulouse,00268 - PLACE JOSEPH BAYLAC,PL DU DR JOSEPH BAYLAC ANGLE AV DES ARENES ROMAINES,False,False,22,4,16,OPEN,1761038186000,43.608597,1.397192
152,152,4003,toulouse,04003 - OCCITANE - MARCO POLO,"Face 1202, rue L’Occitane – Labège (à côté de Hife Toulouse – résidence de coliving) – Labège",False,False,16,8,7,OPEN,1761037951000,43.542949,1.508834
153,153,217,toulouse,00217 - AMOUROUX - ST-TROPEZ,42 CHEMIN AMOUROUX,False,False,18,12,6,OPEN,1761038132000,43.629655,1.466259
154,154,82,toulouse,00082 - SÉJOURNÉ - PT DES CATALANS,1 AV PAUL SEJOURNE,False,False,21,18,1,OPEN,1761038118000,43.605804,1.428054
155,155,362,toulouse,00362 - POUVOURVILLE - GOSCINNY,"Chemin de Pouvourville, face rue de la Cocagne",True,False,13,5,8,OPEN,1761038104000,43.550243,1.457515
156,156,173,toulouse,00173 - BOURGES - MAUNOURY - SÉGLA,25 AV MAURICE BOURGES MAUNOURY,False,False,19,9,9,OPEN,1761038167000,43.633171,1.450638
157,157,70,toulouse,00070 - PLACE DU FER A CHEVAL,5 PLACE DU FER A CHEVAL,False,False,18,13,4,OPEN,1761037777000,43.592366,1.434121
158,158,141,toulouse,00141 - FONTAINE LESTANG METRO,237 RUE HENRI DESBALS,False,False,18,10,8,OPEN,1761038173000,43.587389,1.417918
159,159,108,toulouse,00108 - MARQUETTE - SÉBASTOPOL,40 RUE SEBASTOPOL,False,False,20,2,16,OPEN,1761038181000,43.612279,1.428827
160,160,2001,toulouse,02001 - VELASQUEZ - TAMARIS,Entrée Airbus - Carrefour rue Velasquez – rue Tamaris - Blagnac,False,False,16,10,6,OPEN,1761038137000,43.621004,1.390347
161,161,85,toulouse,00085 - BARCELONE - LECLERC,2 BD DU MARECHAL LECLERC,False,False,22,6,14,OPEN,1761038131000,43.606847,1.430615
162,162,331,toulouse,00331 - LAVAUR - DALOU,"41, rue Jules Dalou - Angle avenue Lavaur",False,False,13,6,7,OPEN,1761038179000,43.622578,1.462668
163,163,202,toulouse,00202 - SAINT-EXUPERY - BUTTE,165 AV ANTOINE DE ST EXUPERY,False,False,17,13,3,OPEN,1761037969000,43.581632,1.475865
164,164,102,toulouse,00102 -  MISTRAL - FLEURANCE,18 ALLEE FREDERIC MISTRAL,False,False,19,12,5,OPEN,1761038136000,43.593567,1.453066
165,165,143,toulouse,00143 - DESBALS - SAINTONGE,PL GENEVIEVE ANTHONIOZ DE GAULLE / ANGLE RUE HENRY DESBALS,True,False,20,9,11,OPEN,1761038128000,43.581384,1.413607
166,166,412,toulouse,00412 - PARC DE LA POUDRERIE,Face 8 et 9 chemin de la loge Ile du Ramier - Toulouse,False,False,16,7,5,OPEN,1761037842000,43.576697,1.43429
167,167,106,toulouse,00106 - BRIENNE - DELORME,99 ALL DE BRIENNE,False,False,21,19,1,OPEN,1761038067000,43.608424,1.423848
168,168,30,toulouse,00030 - PLACE ANATOLE FRANCE,40 PL ANATOLE FRANCE,False,False,25,2,23,OPEN,1761037849000,43.606241,1.438341
169,169,2004,toulouse,02004 - GRENADE - GAUGUIN,"Face 2, rue Claude Monet - Blagnac",False,False,16,12,4,OPEN,1761038050000,43.641431,1.387603
170,170,365,toulouse,00365 - ESPAGNE - CURIEN,"2, avenue Hubert Curien face entrée Pierre Fabre et IUCT",False,False,13,5,7,OPEN,1761037968000,43.558038,1.426581
171,171,170,toulouse,00170 - ALBI - NICOL,FACE 163 CHE NICOL,True,False,17,6,10,OPEN,1761038112000,43.635586,1.464289
172,172,274,toulouse,00274 - GALLIENI GARE,FACE 296 RTE DE SEYSSES / HALTE SNCF GALLIENI - CANCEROPOLE,False,False,18,5,12,OPEN,1761038005000,43.573998,1.419495
173,173,123,toulouse,00123 - HOTEL DE POLICE,1 RUE DE CHAUSSAS,False,False,23,12,11,OPEN,1761037745000,43.61497,1.432909
174,174,6,toulouse,00006 - LOIS - CAPITOL,10 RUE DES LOIS,False,False,18,5,12,OPEN,1761038140000,43.605161,1.442323
175,175,213,toulouse,00213 - PUJOL - CHAUBET,129 AV DE CASTRES,False,False,17,16,0,OPEN,1761037920000,43.600704,1.467249
176,176,257,toulouse,00257 - CHÂT DE L'HERS - FONTANELLES,CH DU CHATEAU DE L'HERS / ANGLE CH FONTANELLES,False,False,16,11,5,OPEN,1761037600000,43.600712,1.48356
177,177,3003,toulouse,03003 - TOURNEFEUILLE MAIRIE,"""Place de la mairie de Tournefeuille - face 69, rue Gaston Doumergue - Tournefeuille""",True,False,16,11,4,OPEN,1761037983000,43.583665,1.346042
178,178,9,toulouse,00009 - ROQUEMAUREL - MAILLARD,RUE ROQUEMAUREL / ANGLE 3 RUE ANNE FRANCK,True,False,18,13,5,OPEN,1761037685000,43.596069,1.410505
179,179,389,toulouse,00389 - EGLISE - LARDENNE,"199, avenue de Lardenne",False,False,13,13,0,OPEN,1761038111000,43.591193,1.384961
180,180,332,toulouse,00332 - PLACE ROSINE BET,"4, place Rosine Bet",False,False,13,4,8,OPEN,1761037893000,43.623355,1.467742
181,181,97,toulouse,00097 - BONREPOS - RAYMOND IV,FACE AU 66 RUE RAYMOND IV,False,False,21,18,1,OPEN,1761038183000,43.612475,1.451558
182,182,49,toulouse,00049 - PLACE DU PONT - NEUF,DEVANT 12 PLACE DU PONT NEUF,False,False,24,7,17,OPEN,1761037891000,43.599598,1.440942
183,183,347,toulouse,00347 - REVEL - ARMENTIÈRES,"Face, 1 rue d'Armentières",False,False,13,5,6,OPEN,1761038123000,43.573815,1.491081
184,184,359,toulouse,00359 - SALADE PONSAN - SAHUQUE,"Face au 49, chemin salade Ponsan",False,False,13,5,8,OPEN,1761038133000,43.563636,1.45531
185,185,191,toulouse,00191 - JARDIN DU PECH,395 ROUTE DE SAINT SIMON,False,False,18,17,1,OPEN,1761037801000,43.590046,1.415246
186,186,291,toulouse,00291 - ÎLE DU RAMIER TRAMWAY,"Carrefour pont Saint Michel  /  avenue du Grand Ramier, face Théâtre de verdure",False,False,13,3,9,OPEN,1761038117000,43.592077,1.439829
187,187,52,toulouse,00052 - DUPORTAL - RAYMOND V,39 BD ARMAND DUPORTAL,False,False,21,17,4,OPEN,1761037844000,43.608571,1.434762
188,188,104,toulouse,00104 - AV. DE MURET TRAMWAY,219 AV DE MURET,False,False,18,9,8,OPEN,1761038158000,43.589126,1.431449
189,189,19,toulouse,00019 - CARNOT - PERI,1 RUE DES 7 TROUBADOURS,False,False,24,14,9,OPEN,1761038121000,43.605571,1.449297
190,190,13,toulouse,00013 - LOIS - ESQUILE,1 RUE DE L ESQUILE,False,False,15,8,6,OPEN,1761038003000,43.606146,1.44135
191,191,129,toulouse,00129 - CROIX DE PIERRE TRAMWAY,2 BD DEODAT DE SEVERAC,True,False,16,7,5,OPEN,1761037855000,43.585732,1.427853
192,192,287,toulouse,00287 - STADE TOULOUSAIN,114 RUE DES TROENES / ANGLE STADE ERNEST WALLON,True,False,30,17,13,OPEN,1761038141000,43.620607,1.415125
193,193,2009,toulouse,02009 - PLACE DU RELAIS TRAMWAY,"Parking face 46, rue de Bûches - Blagnac",False,False,16,9,4,OPEN,1761037952000,43.636972,1.39127
194,194,212,toulouse,00212 - CHIRAC - CHAUMIERE,RUE DE LA CHAUMIERE / 50 M APRES RD-PT DU CAPITAINE DREYFUS,False,False,17,13,4,OPEN,1761037856000,43.6152,1.465444
195,195,284,toulouse,00284 - ATLANTA - AGDE,67 RTE D'AGDE / RD PT DAVID FREIMAN,False,False,15,9,6,OPEN,1761037905000,43.627013,1.477098
196,196,342,toulouse,00342 - GLOIRE - CHIRAC,"Face 2 bis, chemin de Pelleport",False,False,13,12,0,OPEN,1761037808000,43.606975,1.473375
197,197,323,toulouse,00323 - RAYNAL - ALLIER,"Face 81, chemin Raynal",False,False,13,5,8,OPEN,1761037887000,43.631641,1.454852
198,198,158,toulouse,00158 - URSS - MARAN,57 AV DE L'URSS,True,False,20,13,2,OPEN,1761038017000,43.580915,1.449198
199,199,299,toulouse,00299 - VOSGES - BEAUCE,"66, rue de la Beauce",False,False,13,6,6,OPEN,1761037674000,43.581868,1.419446
200,200,356,toulouse,00356 - PLACE NINA SIMONE,Route de Labège (quartier en construction),True,False,13,2,5,OPEN,1761038014000,43.567293,1.500385
201,201,327,toulouse,00327 - ROSTAND - EIDENBENZ,"32, 34 rue Edmond Rostand",False,False,13,13,0,OPEN,1761038154000,43.644197,1.463566
202,202,168,toulouse,00168 - PLACE BILA,FACE 3 PL BILA,False,False,20,15,5,OPEN,1761038156000,43.626597,1.458835
203,203,179,toulouse,00179 - PLANA - CASSAING,5 CH CASSAING,False,False,17,10,6,OPEN,1761037653000,43.616938,1.473616
204,204,204,toulouse,00204 - PLACE ROGER ARNAUD,PL ROGER ARNAUD,True,False,18,18,0,OPEN,1761038025000,43.586859,1.463178
205,205,398,toulouse,00398 - MARTRE - CAULET,"6, rue de Caulet - Carrefour rue de Caulet / rue Marius Tercé",False,False,13,9,4,OPEN,1761038168000,43.606204,1.355664
206,206,2013,toulouse,02013 - ANDROMÈDE LYCÉE TRAMWAY,"Face 18, boulevard Alain Savary et face Storting village - Blagnac",True,False,16,9,7,OPEN,1761038146000,43.654817,1.375528
207,207,249,toulouse,00249 - ALBI - LUCHET,147 RTE D'ALBI,False,False,18,9,9,OPEN,1761037940000,43.637842,1.464879
208,208,312,toulouse,00312 - BASE DE LOISIRS SESQUIERES,Lac de Sesquières  - Devant l'entrée Wam Park,False,False,13,9,4,OPEN,1761038064000,43.651836,1.419854
209,209,15,toulouse,00015 - PORT SAINT SAUVEUR - SEEL,FACE AU 5 PORT SAINT-SAUVEUR,False,False,20,20,0,OPEN,1761037702000,43.596411,1.456584
210,210,247,toulouse,00247 - RTE DE LAUNAGUET - AUDIBERT,FACE 112 RTE DE LAUNAGUET,False,False,17,8,8,OPEN,1761038090000,43.636446,1.438984
211,211,134,toulouse,00134 - EGLISE BONNEFOY,8 ALLEE DE L'EGLISE BONNEFOY,True,False,19,15,4,OPEN,1761038195000,43.619031,1.456759
212,212,76,toulouse,00076 - RECLUSANE - PLACE OLIVIER,"PLACE OLIVIER, DEVANT N°1 RUE  RECLUSANE",False,False,16,7,8,OPEN,1761038094000,43.598478,1.434043
213,213,112,toulouse,00112 - BRANLY - PLACE RUSSELL,47 ALLEE BRANLY,False,False,20,13,7,OPEN,1761038066000,43.585409,1.453014
214,214,193,toulouse,00193 - LOMBEZ - PETITE VITESSE,59 AV DE LOMBEZ,False,False,20,12,8,OPEN,1761038016000,43.59487,1.415088
215,215,190,toulouse,00190 - ESPAGNE - OUSTALOUS,39 RTE D'ESPAGNE,False,False,20,9,8,OPEN,1761038158000,43.577437,1.423953
216,216,241,toulouse,00241 - ESPAGNE - CHARPENTIER,57 RTE D'ESPAGNE,False,False,20,2,18,OPEN,1761037619000,43.575101,1.424227
217,217,253,toulouse,00253 - ÉTATS-UNIS - CHARLAS,FACE 74 AV DES ETATS-UNIS (GARAGE RENAULT TOULOUSE),False,False,20,14,6,OPEN,1761037942000,43.630519,1.43234
218,218,89,toulouse,00089 - COMPANS - CAFFARELLI MÉTRO,1 ESP COMPANS-CAFFARELLI,False,False,22,15,6,OPEN,1761038115000,43.611073,1.436704
219,219,366,toulouse,00366 - ONCOPOLE TÉLÉO,avenue Irène Joliot Curie,True,False,13,6,6,OPEN,1761038037000,43.554843,1.428013
220,220,100,toulouse,00100 - PORT ST - SAUVEUR - SABATIER,16 ALL PAUL SABATIER,False,False,20,16,4,OPEN,1761037814000,43.596652,1.45564
221,221,215,toulouse,00215 - ARGOULETS MÉTRO,FACE 8 RUE DE GAILLAC,True,False,20,13,7,OPEN,1761038128000,43.623823,1.475935
222,222,54,toulouse,00054 - CHAINE - TIERCERETTES,10 RUE DE LA CHAINE,False,False,17,13,4,OPEN,1761037896000,43.608674,1.439461
223,223,8,toulouse,00008 - VIDAL - SAINT - JEROME,19 RUE PAUL VIDAL,False,False,25,10,15,OPEN,1761038189000,43.603205,1.448118
224,224,180,toulouse,00180 - PLACE DE SOUPETARD,3 PLACE DE SOUPETARD,False,False,18,17,1,OPEN,1761037741000,43.612162,1.477347
225,225,277,toulouse,00277 - ZAMENHOF,10/12 RUE ZAMENHOF,False,False,18,9,9,OPEN,1761038155000,43.585431,1.377279
226,226,214,toulouse,00214 - CASTRES - ACHIARY,48 AV DE CASTRES,False,False,17,17,0,OPEN,1761037982000,43.600828,1.473579
227,227,114,toulouse,00114 - MONTPLAISIR - DELIEUX,FACE 43 RUE MONTPLAISIR,False,False,20,14,4,OPEN,1761038160000,43.592347,1.457491
228,228,2,toulouse,00002 - LAFAYETTE,21 RUE LAFAYETTE,True,False,24,0,22,OPEN,1761038176000,43.604885,1.445306
229,229,199,toulouse,00199 - DELTOUR - RIEUX,4 BD DELTOUR,False,False,22,15,7,OPEN,1761037936000,43.591484,1.470014
230,230,223,toulouse,00223 - BELIN - ROCHE,7 AV EDOUARD BELIN ANGLE AV ROCHE RD-PT GUY DU MERLE,True,False,22,4,18,OPEN,1761038192000,43.565079,1.478297
231,231,164,toulouse,00164 - SAOUZELONG - MÉTRO,FACE 79 AV ALBERT BEDOUCE,False,False,20,14,6,OPEN,1761037987000,43.579846,1.460126
232,232,5002,toulouse,05002 - TOLOSANE - POUCIQUOT,25 avenue de Tolosane – Ramonville,False,False,16,2,5,OPEN,1761037913000,43.551101,1.469875
233,233,10,toulouse,00010 - PLACE ESQUIROL,15 PL ETIENNE ESQUIROL,True,False,44,19,22,OPEN,1761038110000,43.600348,1.444659
234,234,330,toulouse,00330 - LAPUJADE - BARTOLI,"Face 72, chemin de  Lapujade",False,False,13,7,6,OPEN,1761038102000,43.622099,1.453553
235,235,35,toulouse,00035 - PLACE JEANNE D'ARC,1 RUE RAYMOND IV,False,False,25,10,15,OPEN,1761038076000,43.609602,1.446881
236,236,250,toulouse,00250 - 11 NOVEMBRE - NÉGOGOUSSES,RUE DU 11 NOVEMBRE FACE 45 RUE DU 14 JUILLET,False,False,18,6,11,OPEN,1761038098000,43.593052,1.414659
237,237,45,toulouse,00045 - OZENNE - NAZARETH,10 RUE THEODORE OZENNE,False,False,19,8,6,OPEN,1761038044000,43.596314,1.447081
239,239,83,toulouse,00083 - SÉJOURNÉ - AMIDONNIERS,2 AV PAUL SEJOURNE,False,False,17,10,5,OPEN,1761038161000,43.605687,1.428225
240,240,2008,toulouse,02008 - PASTEUR - LAVOISIER,"26, rue Pasteur – Face La poste sur rue du 19 mars 1962 - Blagnac",False,False,16,14,2,OPEN,1761037821000,43.634625,1.394706
241,241,47,toulouse,00047 -  LANGUEDOC - NAZARETH,12 RUE DU LANGUEDOC,False,False,30,20,10,OPEN,1761038168000,43.595247,1.445416
242,242,383,toulouse,00383 - PARC DE LA MOUNEDE,"8, rue Roger Camboulives",False,False,13,6,6,OPEN,1761037871000,43.572131,1.38317
243,243,231,toulouse,00231 - NARBONNE - DURAND,FACE 215 RTE DE NARBONNE ANGLE ALL EMILE DURAND,False,False,20,19,1,OPEN,1761037897000,43.557264,1.46541
244,244,44,toulouse,00044 - PLACE SAINT - JACQUES,1 ALL FORAIN FRANCOIS VERDIER,False,False,22,16,6,OPEN,1761037786000,43.597825,1.451609
245,245,171,toulouse,00171 - ALBI - PELET,191 RTE D'ALBI,False,False,17,7,10,OPEN,1761038028000,43.641034,1.466458
246,246,162,toulouse,00162 - PLACE D'ITALIE,FACE 49 AV D' ITALIE,False,False,17,14,3,OPEN,1761038044000,43.580296,1.45486
247,247,328,toulouse,00328 - NICOL - VASSEUR,"2, rue Vasseur",False,False,13,12,1,OPEN,1761037642000,43.633437,1.469891
248,248,361,toulouse,00361 - POUVOURVILLE - BOURDETTE,Croisement chemin de Pouvourville / Chemin de la Bourdette,False,False,13,8,4,OPEN,1761037823000,43.5552,1.457169
249,249,31,toulouse,00031 - PLACE DU PEYROU,7 RUE DES SALENQUES,False,False,20,9,10,OPEN,1761037918000,43.607369,1.439453
250,250,138,toulouse,00138 - BARRIERE DE BAYONNE,3 BD JEAN BRUNHES,False,False,20,6,11,OPEN,1761037873000,43.597908,1.420144
251,251,216,toulouse,00216 - ARGOULETS - HOUDON,3 RUE JEAN HOUDON,False,False,17,14,3,OPEN,1761038104000,43.622823,1.474083
252,252,309,toulouse,00309 - ROUTE DE BLAGNAC - ROQUES,"Face 149, route de Blagnac / Rond-point Pierre Mounicq",False,False,13,1,12,OPEN,1761038186000,43.622042,1.405735
253,253,194,toulouse,00194 - LOMBEZ - HIPPODROME,FACE 140 AV DE LOMBEZ,False,False,20,18,1,OPEN,1761038146000,43.593979,1.410311
254,254,380,toulouse,00380 - EGLISE SAINT SIMON,"Face 2, place de l’Eglise – Face Caisse d’épargne",True,False,13,3,3,OPEN,1761037754000,43.557175,1.381013
255,255,353,toulouse,00353 - RODIER - PRANVILLE-NÉGRIN,"11, rue Jean Rodier",False,False,13,1,12,OPEN,1761037721000,43.569898,1.485423
256,256,344,toulouse,00344 - RIEUX - VAISSE,"58, avenue Jean Rieux",False,False,13,13,0,OPEN,1761037964000,43.596256,1.462071
257,257,98,toulouse,00098 - DEMOISELLES - CRAMPEL,80 ALL DES DEMOISELLES,False,False,21,19,2,OPEN,1761038157000,43.58771,1.459838
258,258,263,toulouse,00263 - LA CEPIÈRE - BAYLET,87 AV JEAN BAYLET / ANGLE CHEMIN CEPIERES SUR PARKING LYCEE POLYVALENT,False,False,18,12,5,OPEN,1761037852000,43.584444,1.398745
259,259,16,toulouse,00016 - STRASBOURG - BAYARD,32 BD DE STRASBOURG,False,False,21,10,9,OPEN,1761038099000,43.607847,1.446666
260,260,324,toulouse,00324 - ROSTAND - DURAND,"Face 113, rue Edmond Rostand",False,False,13,2,11,OPEN,1761038010000,43.642299,1.4496236
261,261,169,toulouse,00169 - ALBI - AVRANCHES,65 RTE D'ALBI,False,False,17,13,3,OPEN,1761037690000,43.632532,1.463081
262,262,39,toulouse,00039 - PLACE DE DAMLOUP,9 PL DE DAMLOUP,False,False,19,10,8,OPEN,1761038156000,43.605855,1.452805
263,263,306,toulouse,00306 - DEODAT - ARCS SAINT CYPRIEN,"13 et 15, rue des Arcs Saint-Cyprien",False,False,13,4,7,OPEN,1761038046000,43.590111,1.423003
264,264,201,toulouse,00201 - SAINT-EXUPERY - POTEZ,256 AV ANTOINE DE ST EXUPERY,False,False,18,10,8,OPEN,1761037974000,43.579763,1.480838
265,265,302,toulouse,00302 - JARDIN DU BARRY,"Carrefour rue du Docteur Suzanne Noel / Voie du TOEC, face jardins du Barry",False,False,13,1,12,OPEN,1761038062000,43.601379,1.403879
266,266,198,toulouse,00198 - DELTOUR - LAFILAIRE,FACE 25 CHEMIN LAFILAIRE,False,False,20,18,2,OPEN,1761037703000,43.596193,1.473375
267,267,101,toulouse,00101 - LESPINET - MARINE,Place de Lespinet - Face 51 avenue de Lespinet,False,False,14,12,2,OPEN,1761038186000,43.582551,1.464204
268,268,301,toulouse,00301 - LARDENNE - BROMBACH,50 avenue de Lardenne,False,False,13,0,13,OPEN,1761037794000,43.592951,1.40379
269,269,258,toulouse,00258 - ATLANTA - CAMBARD,BD ATLANTA / ANGLE RUE CAMBARD,False,False,18,13,5,OPEN,1761037764000,43.629395,1.476186
270,270,56,toulouse,00056 - SAINT-SERNIN - MERLY,1 RUE MERLY,False,False,15,14,0,OPEN,1761038046000,43.609191,1.442749
271,271,159,toulouse,00159 - SAINT - AGNE GARE,96 AV JULES JULIEN,False,False,20,16,4,OPEN,1761037942000,43.578572,1.450234
272,272,300,toulouse,00300 - VESTREPAIN - BAGATELLE,"7, chemin de Bagatelle",False,False,13,4,9,OPEN,1761038183000,43.584492,1.411057
273,273,72,toulouse,00072 - FITTE -  MAGNE,23 ALL CHARLES DE FITTE,False,False,20,16,1,OPEN,1761037829000,43.59522,1.432503
274,274,146,toulouse,00146 - SANG DE SERP - DAGNAUX,57 CHEMIN DU SANG DE SERP,False,False,20,12,7,OPEN,1761038106000,43.61567,1.428308
275,275,395,toulouse,00395 - BAYONNE - SENTENAC,"Parking face 1, rue René Sentenac (rond-point)",False,False,13,11,1,OPEN,1761038185000,43.608999,1.379956
276,276,2002,toulouse,02002 - PLAN DU PORT,Face n° 2 et 4 Place Le Plan du Port - Blagnac,False,False,16,14,2,OPEN,1761038048000,43.624831,1.399657
277,277,377,toulouse,00377 - MONLONG - LOUP,"Face 55, bis chemin du loup",False,False,13,6,6,OPEN,1761038189000,43.554796,1.387295
279,279,292,toulouse,00292 - ÎLE DU RAMIER - PASSERELLE POUJADE,Rond point Michel Benech,True,False,13,0,11,OPEN,1761037829000,43.588124,1.436312
280,280,261,toulouse,00261 - VAN DYCK - RAPHAËL,DEVANT 6 RUE VAN DICK / FACE RUE RAPHAEL,False,False,18,10,2,OPEN,1761037837000,43.640631,1.440154
281,281,151,toulouse,00151 - CURIE - NEGRENEYS,27 BD PIERRE ET MARIE CURIE,False,False,24,22,2,OPEN,1761037812000,43.624514,1.443326
282,282,321,toulouse,00321 - NÉGRENEYS - ANGES,"57, rue des Anges",False,False,13,8,4,OPEN,1761037726000,43.620308,1.440963
283,283,238,toulouse,00238 - HERBETTES - BUTTE,FACE 48/58 CHEMIN DE LA BUTTE,False,False,17,14,4,OPEN,1761038096000,43.579341,1.47313
284,284,80,toulouse,00080 - FITTE - VARSI,89B ALLEE CHARLES DE FITTE,False,False,22,14,3,OPEN,1761038137000,43.599637,1.429338
285,285,316,toulouse,00316 - FRONTON - HAON,"Rond-point Maurice Espitalier - carrefour avenue de Fronton, rue André Haon",False,False,13,6,7,OPEN,1761038139000,43.656202,1.432254
286,286,57,toulouse,00057  ARCOLE - MERLY,15 RUE MERLY,False,False,15,11,4,OPEN,1761038119000,43.6103,1.442975
287,287,3001,toulouse,03001 - AURIOL - MUSSET,"Face 51/53, boulevard Vincent Auriol – devant centre commercial de Tournefeuille",False,False,16,3,12,OPEN,1761037910000,43.588092,1.354191
288,288,269,toulouse,00269 - PLACE JACQUES SAUVEGRAIN,PL JACQUES SAUVEGRAIN / ANGLE AV DE LARDENNES,True,False,18,14,3,OPEN,1761037639000,43.589921,1.377827
289,289,285,toulouse,00285 - BALMA GRAMONT MÉTRO,METRO GRAMONT / ANGLE RUE SAINT JEAN,True,False,18,11,7,OPEN,1761038089000,43.628659,1.482629
290,290,349,toulouse,00349 - REVEL - NOUADHIBOU,"100m après 238, route de Revel - Carrefour rond-point route de Revel/rue Nouadhibou",False,False,13,2,10,OPEN,1761037627000,43.567084,1.506071
291,291,58,toulouse,00058  ARCOLE  - CONCORDE,4 RUE DE LA CONCORDE,True,False,25,21,4,OPEN,1761038109000,43.610663,1.443637
292,292,272,toulouse,00272 - ATLANTA - VASSEUR,BD ATLANTA / FACE 31 RUE ANDRE VASSEUR,False,False,17,7,10,OPEN,1761037861000,43.635421,1.472855
293,293,345,toulouse,00345 - CASTRES - LASBORDES,"Parking face 241, avenue de Castres",False,False,13,13,0,OPEN,1761037987000,43.594671,1.488444
294,294,372,toulouse,00372 - REYNERIE MÉTRO,Angle rue André Maginot / Place André Abbal,False,False,13,2,10,OPEN,1761037967000,43.571497,1.402857
295,295,95,toulouse,00095 - THÉATRE GARONNE,4 AV DU CHÂTEAU D'EAU,False,False,22,17,2,OPEN,1761038143000,43.602426,1.425347
296,296,222,toulouse,00222 - ROCHE - LAAS,15 AV DU COLONEL ROCHE,False,False,19,1,18,OPEN,1761038121000,43.563894,1.474416
297,297,313,toulouse,00313 - RUE DE FENOUILLET - VERNE,"58, rue de Fenouillet",False,False,13,11,2,OPEN,1761037994000,43.628271,1.425653
298,298,325,toulouse,000325 - PLACE ROGER LOUPIAC,"Place Roger Loupiac - face 1 et 3, rue Thérèse Avondo",False,False,13,13,0,OPEN,1761037950000,43.648121,1.450024
299,299,92,toulouse,00092 - CHALETS - DOUVILLÉ,31 RUE DES CHALETS,False,False,15,11,4,OPEN,1761037825000,43.613149,1.441326
300,300,318,toulouse,00318 - EGLISE AUCAMVILLE,"448, route / avenue de Fronton",True,False,13,9,4,OPEN,1761038131000,43.665305,1.430323
301,301,38,toulouse,00038 - JAURES - BACHELIER,54 ALLEE JEAN JAURES,False,False,31,20,10,OPEN,1761038032000,43.607222,1.451244
302,302,357,toulouse,00357 - BELIN - TARFAYA,"23, avenue Edouard Belin",False,False,13,11,1,OPEN,1761038090000,43.562329,1.48431
303,303,140,toulouse,00140 - PLACE EMILE MALE,PLACE EMILE MALE,True,False,29,16,10,OPEN,1761037842000,43.591661,1.418768
304,304,290,toulouse,00290 - AMIDONNIERS - DEBAT-PONSAN,"71, bis rue des amidonniers",False,False,13,11,2,OPEN,1761038093000,43.606453,1.420798
305,305,4,toulouse,00004 - GAMBETTA - SAINTE - URSULE,15 RUE SAINTE-URSULE,False,False,20,14,5,OPEN,1761037990000,43.602671,1.442031
306,306,136,toulouse,00136 - FONTAINES - MILHES,FACE 175 RUE DES FONTAINES,False,False,15,11,2,OPEN,1761038142000,43.60202,1.414772
307,307,176,toulouse,00176 - CIMETIERE COMPANS,1 RUE DU GENERAL COMPANS,False,False,18,16,1,OPEN,1761038097000,43.606701,1.458143
308,308,142,toulouse,00142 - LYCEE DEODAT DE SEVERAC,FACE AU 65 BD DEODAT DE SEVERAC,False,False,20,16,4,OPEN,1761037912000,43.588046,1.42436
309,309,237,toulouse,00237 - BELIN - CNES,16 BIS AV EDOUARD BELIN FACE CNRS,False,False,20,7,13,OPEN,1761038129000,43.562273,1.480912
310,310,355,toulouse,00355 - VILLET - COSMONAUTES,32 et 34 rue des Cosmonautes,False,False,13,1,11,OPEN,1761038015000,43.559298,1.495916
311,311,28,toulouse,00028 - PLACE SAINT-PIERRE,2 PLACE SAINT-PIERRE,True,False,22,10,12,OPEN,1761037861000,43.603228,1.436034
312,312,286,toulouse,00286 - FONTAINES - BRUN,"40, rue des Fontaines",False,False,13,12,0,OPEN,1761038030000,43.600241,1.42564
313,313,182,toulouse,00182 - CHAUBET - PLANA,FACE 155 AV JEAN CHAUBET,True,False,20,4,15,OPEN,1761038068000,43.60592,1.481742
314,314,94,toulouse,00094 - LYON - SÉMARD,76 BD DE LA GARE,True,False,25,19,3,OPEN,1761038100000,43.614083,1.451158
315,315,320,toulouse,00320 PARC DE LA VIOLETTE,"Face 14, rue Virginia Wolf",False,False,13,12,0,OPEN,1761038145000,43.654363,1.438131
316,316,293,toulouse,00293 - TASSIGNY - MOMBIOLA,"Face 11, rue Maria Mombiola / 50m avant l’annexe Mairie Empalot (« La brique rouge » )",False,False,13,12,0,OPEN,1761037961000,43.578537,1.438375
317,317,206,toulouse,00206 - RIEUX - LEYGUE,20 AV ARMAND LEYGUE,True,False,18,17,1,OPEN,1761038149000,43.594117,1.465197
318,318,360,toulouse,00360 - SALADE PONSAN - VALLON,Croisement chemin salade Ponsan / Chemin du Vallon,False,False,13,8,5,OPEN,1761038012000,43.560168,1.457394
319,319,127,toulouse,00127 - DEMOISELLES - BÉGUÉ - DAVID,1 RUE BEGUE,False,False,15,15,0,OPEN,1761038191000,43.589802,1.455967
320,320,279,toulouse,00279 - CASSELARDIT - ESPAGNO,AV DE CASSELARDIT / ANGLE AV DU PR GUY ESPAGNO,False,False,18,3,15,OPEN,1761037791000,43.613555,1.401417
321,321,88,toulouse,00088 - LASCROSSES - DUPORTAL,17T BD LASCROSSES,True,False,25,14,11,OPEN,1761037989000,43.61009,1.434974
322,322,251,toulouse,00251 - JOLIMONT MÉTRO,26 AV LEON BLUM ANGLE RUE LEON JOUHAUX,False,False,14,7,6,OPEN,1761037775000,43.61432,1.461721
323,323,333,toulouse,00333 - CHEMIN DE TOURNEFEUILLE - LESBRE,"Parking carrefour, chemin de Tournefeuille / impasse Michel Lesbre",False,False,13,7,6,OPEN,1761037918000,43.597281,1.369665
324,324,2003,toulouse,02003 - SERVANTY AIRBUS TRAMWAY,"Face n°44, avenue Lucien Servanty - Blagnac",False,False,16,12,4,OPEN,1761037599000,43.624972,1.392925
325,325,226,toulouse,00226 - CASSELARDIT - FONTAINES,FACE 287 RUE DES FONTAINES ANGLE AV DE CASSELARDIT,False,False,17,1,16,OPEN,1761038138000,43.604159,1.407267
326,326,91,toulouse,00091 - ARCOLE - BALANCE,48 BD D'ARCOLE,False,False,21,20,1,OPEN,1761037819000,43.611556,1.439662
327,327,308,toulouse,00308 - SEPT DENIERS - TROÈNES,Carrefour des Troènes - 76 chemin des Sept Deniers,False,False,13,10,3,OPEN,1761037618000,43.620967,1.412027
328,328,122,toulouse,00122 - PASSERELLE HAEDENS,57 BD DE L EMBOUCHURE,False,False,19,12,6,OPEN,1761038152000,43.613504,1.430339
329,329,185,toulouse,00185 - ROUBICHOU - ARLES,30 RUE ROUBICHOU,False,False,15,12,3,OPEN,1761038074000,43.627108,1.465538
330,330,2011,toulouse,02011 - PATINOIRE BARRADELS TRAMWAY,Parking de la patinoire municipale Jacques Raynaud - Blagnac,False,False,16,16,0,OPEN,1761037987000,43.641052,1.38325
331,331,27,toulouse,00027 - TOUNIS - PONT NEUF,20 M APRES 122 QUAI DE TOUNIS,False,False,22,15,6,OPEN,1761038166000,43.598966,1.440387
332,332,220,toulouse,00220 -  MIRAIL UNIVERSITÉ MÉTRO,3 RUE DE L'UNIVERSITE,True,False,19,4,15,OPEN,1761038150000,43.574466,1.402211
333,333,209,toulouse,00209 - BAROUX - DARASSE,4 AV LUCIEN BAROUX,False,False,18,16,2,OPEN,1761037728000,43.589557,1.4789
334,334,78,toulouse,00078 - ST - CYPRIEN - MÉTRO DARRÉ,14 PL INTERIEURE ST CYPRIEN,True,False,17,7,10,OPEN,1761038190000,43.598124,1.431382
335,335,310,toulouse,00310 - DALI-BONIN,"3, rue Louis Bonin",False,False,13,7,6,OPEN,1761037689000,43.626244,1.411083
336,336,337,toulouse,00337 -CHIRAC - HEREDIA,"1, rue David Elbaz",False,False,13,5,7,OPEN,1761038032000,43.612555,1.467544
337,337,26,toulouse,00026 - DALBADE - PARADOUX,9 RUE HENRY DE GORSSE,False,False,22,18,4,OPEN,1761038119000,43.597941,1.443002
338,338,230,toulouse,00230 - UT3 - CHAMPS MAGNETIQUES,141 AV DE RANGUEIL,False,False,20,4,15,OPEN,1761038001000,43.567307,1.467715
339,339,403,toulouse,00403 - NARBONNE - CLOTASSES,"271, route de Narbonne",False,False,16,12,4,OPEN,1761037876000,43.553468,1.468265
340,340,382,toulouse,00382 - LIFFARD - SAINT SIMON,"Face 66, chemin de Liffard",False,False,13,13,0,OPEN,1761037831000,43.564413,1.375571
341,341,149,toulouse,00149 - BD DES MINIMES - RAISIN,FACE 2 CHEMIN DU RAISIN,False,False,22,19,1,OPEN,1761038083000,43.61539,1.448573
342,342,59,toulouse,00059 - CONCORDE - PRINTEMPS,61 RUE DE LA CONCORDE,False,False,18,16,1,OPEN,1761037729000,43.613442,1.446395
343,343,42,toulouse,00042 - ESCANDE - DAURIAC,3 BD PR LEOPOLD ESCANDE / FACE ASSURANCE MALADIE HG,False,False,20,15,3,OPEN,1761037993000,43.601607,1.456158
344,344,107,toulouse,00107 - LASCROSSE - SÉBASTOPOL,1 RUE DE SEBASTOPOL,False,False,27,4,23,OPEN,1761038182000,43.60962,1.430401
345,345,246,toulouse,00246 - WAGNER - BRUNHES,29 BD RICHARD WAGNER ANGLE BD JEAN BRUNHES,False,False,20,20,0,OPEN,1761038045000,43.603842,1.420002
346,346,219,toulouse,00219 - RTE DE BLAGNAC - PUCCINI,35 RUE GIACOMO PUCCINI,False,False,18,16,2,OPEN,1761037888000,43.614514,1.411161
347,347,163,toulouse,00163 - BEDOUCE - MARNE,115 AV ALBERT BEDOUCE,False,False,20,16,3,OPEN,1761037874000,43.581506,1.462341
348,348,99,toulouse,00099 - METZ - REMPART ST-ÉTIENNE,7 RUE DU REMPART ST ETIENNE,False,False,16,1,14,OPEN,1761037862000,43.6008250248339,1.45065484986121
349,349,267,toulouse,00267 - GONIN - GÉNIN,2 IMP GASTON GENIN ANGLE RUE CLAUDE GONIN,False,False,16,12,3,OPEN,1761037849000,43.573895,1.483924
350,350,113,toulouse,00113 - DUMÉRIL - LAMARCK,FACE 58 RUE DUMERIL,False,False,20,15,3,OPEN,1761038012000,43.592349,1.449015
351,351,317,toulouse,00317 - GAUSSEN - CROIX-BÉNITE,"Face, 22 - 24 boulevard Henri Gaussen",False,False,13,8,5,OPEN,1761037909000,43.662024,1.434622
352,352,133,toulouse,00133 - MINIMES C.NOUGARO MÉTRO,71 AV DES MINIMES,True,False,22,8,14,OPEN,1761038115000,43.620693,1.435612
353,353,352,toulouse,00352 - MONTAUDRAN GARE,"10, avenue de l’aérodrome de Montaudran",True,False,13,8,4,OPEN,1761037915000,43.573248,1.48022
354,354,148,toulouse,00148 - COLLIGNON - RAISIN,16 AV DE COLLIGNON,False,False,19,12,7,OPEN,1761037853000,43.617712,1.445142
355,355,335,toulouse,00335 - COLONNE - REILLE,"Face 5, rue Maréchal Honoré Reille",False,False,13,12,1,OPEN,1761038012000,43.609218,1.459543
356,356,283,toulouse,00283 - TROIS COCUS MÉTRO,12 RUE DU COL PAUL PAILLOLE PL MICOULEAU,False,False,20,5,15,OPEN,1761037958000,43.638055,1.444344
357,357,411,toulouse,00411 - PISCINE NAKACHE,"Croisement avenue du Pr. Camille soula, allée Jacques Lacassagne et Gabriel Biénès",False,False,16,7,9,OPEN,1761037703000,43.585921,1.437868
358,358,167,toulouse,00167 - LAPUJADE - FLANDRES,RUE LAPUJADE / ANGLE RUE DES FLANDRES,False,False,18,14,3,OPEN,1761037597000,43.624202,1.454685
359,359,205,toulouse,00205 - RIEUX - COTTAGES,58 AV DES COTTAGES,False,False,18,11,7,OPEN,1761038095000,43.585924,1.475057
360,360,116,toulouse,00116 - ST-MICHEL - NOTRE - DAME,88 GRANDE RUE SAINT-MICHEL,False,False,15,13,2,OPEN,1761038152000,43.589553,1.445888
361,361,265,toulouse,00265 - RTE DE SEYSSES - LONDRES,PASSAGE DU CANAL DE BORDELONGUE FACE 251 RTE DE SEYSSES,False,False,18,7,9,OPEN,1761038189000,43.568038,1.413363
362,362,86,toulouse,00086 - HÉRACLÈS - BÉARNAIS,23 RUE DU BEARNAIS,False,False,20,17,1,OPEN,1761037984000,43.608004,1.428585
363,363,66,toulouse,00066 - JARDIN ROYAL,RUE DU 8 MAI 1945 / FACE JARDIN ROYAL,False,False,23,18,5,OPEN,1761038111000,43.596419,1.45104
364,364,34,toulouse,00034 - STRASBOURG - BOSC,15 RUE JOSEPH BOSC,False,False,22,21,1,OPEN,1761038052000,43.609766,1.445681
366,366,6001,toulouse,06001 - ARENES - AEROSTIERS,"1, avenue des Arènes, face arrêt Tisséo « Aérostiers » - Balma",False,False,16,3,5,OPEN,1761038120000,43.609908,1.489803
367,367,240,toulouse,00240 - PLACE JOB,FACE 103 BIS ROUTE DE BLAGNAC,False,False,18,12,6,OPEN,1761037795000,43.616945,1.408383
368,368,119,toulouse,00119 - BRIENNE - CHAPOU,129 ALL DE BRIENNE,False,False,24,22,2,OPEN,1761037904000,43.610005,1.419568
369,369,351,toulouse,00351 - L'ENVOL DES PIONNIERS,"Sur piste cyclabe, carrefour 7, rue Jacqueline Auriol (Montaudran) / rue Beppo de Massini",False,False,13,7,5,OPEN,1761037852000,43.574602,1.476596
370,370,275,toulouse,00275 - PLACE DES PRADETTES,41 AV LOUIS ARISTE PASSERIEU / PL DES PRADETTES,True,False,17,17,0,OPEN,1761037983000,43.58144,1.388774
371,371,2010,toulouse,02010 - ODYSSUD RITOURET TRAMWAY,"3, avenue des tilleuls face Brasserie du Parc  - Blagnac",False,False,16,12,3,OPEN,1761037991000,43.635559,1.384149
372,372,350,toulouse,00350 - PISTE DES GÉANTS - TERECHKOVA,"Place de l’Aéropostale, rue Valentina Terechkova Montaudran",False,False,13,10,1,OPEN,1761037706000,43.576029,1.473627
373,373,18,toulouse,00018 - STRASBOURG - JAURES,4 BD DE STRASBOURG,False,False,24,12,10,OPEN,1761038179000,43.606346,1.44813
374,374,160,toulouse,00160 - THEATRE JULES JULIEN,21 AV DES ECOLES JULES JULIEN,False,False,17,11,6,OPEN,1761037897000,43.57337,1.452405
375,375,282,toulouse,00282 -  WAGNER - VIVALDI,BD RICHARD WAGNER / ANGLE RUE ANTONIO VIVALDI,False,False,18,12,5,OPEN,1761037988000,43.606115,1.414755
377,377,12,toulouse,00012 - PARGAMINIERES - LAKANAL,66 RUE PARGAMINIERES,False,False,11,6,4,OPEN,1761038100000,43.60459,1.44002
379,379,43,toulouse,00043 - PLACE DUPUY,14 PL DOMINIQUE MARTIN DUPUY,False,False,22,17,4,OPEN,1761037935000,43.600188,1.454764
380,380,408,toulouse,00408 - BRUNAUD - CEAT,"Face 76, avenue Yves Brunaud - Toulouse",False,False,16,13,3,OPEN,1761037632000,43.617615,1.466289
381,381,232,toulouse,00232 - NARBONNE - CAUBERE,73 RTE DE NARBONNE,False,False,15,7,4,OPEN,1761038182000,43.569089,1.456292
382,382,61,toulouse,00061 - MATABIAU GARE - BONREPOS,12 BD DE BONREPOS,True,False,40,21,19,OPEN,1761038168000,43.611052,1.452593
383,383,378,toulouse,00378 - BASSO CAMBO METRO,"P+R Métro Basso, entre Parc à vélo et parking aérien",True,False,13,2,11,OPEN,1761038080000,43.569972,1.391809
384,384,211,toulouse,00211 - LA TERRASSE - LEDORMEUR,9 RUE LE DORMEUR,False,False,18,15,3,OPEN,1761037781000,43.583511,1.487795
385,385,165,toulouse,00165 -  AVIONS - LIBELLULES,33 AVENUE DES AVIONS,False,False,15,11,4,OPEN,1761037999000,43.57688,1.460189
386,386,393,toulouse,00393 - HOPITAL PURPAN,Avenue du Professeur Jean Dausset – carrefour Tram / entrée de l’hôpital Paule de Viguier,True,False,13,1,12,OPEN,1761037932000,43.60768,1.402173
387,387,278,toulouse,00278 - ARÈNES ROMAINES TRAMWAY,RD PT ANGLE AV DES ARENES ROMAINES RUE JEAN ESPITALIER,False,False,18,8,8,OPEN,1761037877000,43.614159,1.397008
388,388,270,toulouse,00270 - TRENTIN - VERNE,RUE JULES VERNE / ANGLE FACE 40 BD SILVIO TRENTIN,False,False,16,4,9,OPEN,1761038101000,43.623998,1.427823
389,389,103,toulouse,00103 - ST - MICHEL - STE - CATHERINE,134 GRANDE RUE SAINT-MICHEL,False,False,20,16,1,OPEN,1761038018000,43.590847,1.445284
390,390,307,toulouse,00307 - SUISSE - POLITKOVSKAIA,"38, boulevard de Suisse",False,False,13,7,6,OPEN,1761038168000,43.61324,1.419932
391,391,17,toulouse,00017 - STRASBOURG - AUSTERLITZ,7 BD DE STRASBOURG,True,False,23,12,10,OPEN,1761038072000,43.606499,1.44769
392,392,326,toulouse,00326 - EBELOT - PUJIBET,"Face 55, rue Henri Ebelot (sur le rond-point)",False,False,13,2,11,OPEN,1761038150000,43.638044,1.457716
393,393,46,toulouse,00046 - PLACE DES CARMES,1 PL DES CARMES,True,False,20,9,9,OPEN,1761038016000,43.597364,1.445314
394,394,2012,toulouse,02012 - PLACE GEORGES BRASSENS,"Parking, face écoles Louis Weidknnet - Place Georges Brassens - Blagnac",False,False,16,11,5,OPEN,1761038078000,43.64883,1.376338
395,395,218,toulouse,00218 - AMOUROUX - STE - AUGUSTINE,24 BIS CHE AMOUROUX,False,False,18,10,7,OPEN,1761037799000,43.627643,1.461861
396,396,203,toulouse,00203 - ST-EXUPERY - PETIT PRINCE,2 AV ANTOINE DE ST EXUPERY,False,False,20,9,11,OPEN,1761037852000,43.58355,1.470033
397,397,2014,toulouse,02014 - AV. DU PARC - GUYENNE,Av. du Parc - Guyenne,False,False,16,11,5,OPEN,1761038172000,43.632311,1.388446
398,398,311,toulouse,00311 - ETATS-UNIS - GLACIÈRE,"Face 67, rue de la Glacière - carrefour rue de la Glacière / avenue des Etats-Unis",False,False,13,7,5,OPEN,1761038178000,43.646471,1.426013
399,399,387,toulouse,00387 - CORIOLIS - DUPOUY,Avenue Gaspard Coriolis carrefour rue du professeur Gaston Dupouy,False,False,13,0,13,OPEN,1761038190000,43.578809,1.379975
400,400,296,toulouse,00296 - ESPAGNE-LANGLADE,"89, route d'Espagne",False,False,13,5,3,OPEN,1761038118000,43.571858,1.42447
401,401,132,toulouse,00132 - MINIMES - BAQUÉ,101 AVENUES DES MINIMES,False,False,19,17,2,OPEN,1761038177000,43.622966,1.434449
402,402,145,toulouse,00145 - GOUNOD - GARROS,29 RUE ROLAND GARROS,False,False,20,18,2,OPEN,1761037951000,43.613881,1.424953
403,403,32,toulouse,00032 - MUSEE SAINT-RAYMOND,2 PLACE SAINT-SERNIN / ANGLE 2 RUE DES 3 RENARDS,True,False,12,3,7,OPEN,1761037882000,43.607608,1.441304
404,404,374,toulouse,00374 - BELLEFONTAINE MÉTRO,Allée de Bellefontaine,False,False,13,1,0,OPEN,1761037908000,43.565832,1.398708
405,405,5,toulouse,00005 - MARENGO - LEDUC,FACE AU 5 RUE RENE LEDUC,False,False,19,16,2,OPEN,1761038034000,43.611386,1.456729
406,406,289,toulouse,00289 - BIARRITZ - CASSELARDIT,"18, avenue de Biarritz",False,False,13,4,7,OPEN,1761037660000,43.607189,1.409324
407,407,110,toulouse,00110 - SERRES - CABANEL,16 RUE ALEXANDRE CABANEL,False,False,18,14,3,OPEN,1761038153000,43.614227,1.437999
408,408,125,toulouse,00125 - BARRIERE DE PARIS MÉTRO,FACE AU 2 BARRIERE DE PARIS,False,False,25,9,13,OPEN,1761038106000,43.627017,1.434129
409,409,63,toulouse,00063 - PISCINE LEO LAGRANGE,54 RUE DES SEPT TROUBADOURS,False,False,22,13,9,OPEN,1761038009000,43.607468,1.454329
410,410,4002,toulouse,04002 - LABÈGE INNOPOLE GARE,Parking proche gare SNCF Innopole et Parc à vélo - Labège,True,False,16,8,5,OPEN,1761038108000,43.547467,1.51246
411,411,177,toulouse,00177 - BRUNAUD - BAILLAUD,64 RUE BAILLAUD,False,False,20,18,2,OPEN,1761037690000,43.617458,1.465428
412,412,73,toulouse,00073 - FITTE - TEINTURIERS,40 ALLEE CHARLES DE FITTE,False,False,16,5,10,OPEN,1761037978000,43.596294,1.432158
413,413,364,toulouse,00364 - ESPAGNE - GIRONIS,Rond-point Hélène Rouch – route d’Espagne face clinique Médipôle,False,False,13,3,9,OPEN,1761037952000,43.563741,1.425433
414,414,200,toulouse,00200 - REVEL - BAJAC,43 route de Revel - Gymnase écoles publiques Henri Guillaumet,True,False,16,4,12,OPEN,1761037724000,43.576559,1.487548
415,415,14,toulouse,00014 - PERIGORD,26 RUE DE PERIGORD,False,False,17,8,7,OPEN,1761038099000,43.60742,1.444699
416,416,5003,toulouse,05003 - RAMONVILLE MAIRIE,Place de la mairie - Ramonville,True,False,16,8,7,OPEN,1761037882000,43.546064,1.474738
417,417,181,toulouse,00181 - PLANA - GARNIER,27 AV LOUIS PLANA,False,False,17,3,13,OPEN,1761038159000,43.609275,1.479898
418,418,50,toulouse,00050 - HAURIOU - GARONNETTE,1 AV MAURICE HAURIOU,False,False,23,17,6,OPEN,1761038184000,43.594359,1.44095
419,419,20,toulouse,00020 - CARNOT - TROIS JOURNEES,69 BD LAZARE CARNOT,False,False,26,19,4,OPEN,1761037692000,43.604677,1.449586
420,420,155,toulouse,00155 - RÉCOLLETS - FERETRA,34 BD DES RECOLLETS,False,False,20,13,6,OPEN,1761038087000,43.583787,1.443299
421,421,256,toulouse,00256 - CITÉ DE L'HERS - ROTONDE,4 RUE DE CARCASSONNE,False,False,18,16,1,OPEN,1761038052000,43.596636,1.483995
422,422,69,toulouse,00069 - FEUGA - PONT SAINT - MICHEL,11 ALL PAUL FEUGA,False,False,18,10,7,OPEN,1761037988000,43.592388,1.442463
423,423,157,toulouse,00157 - URSS - PEYROUSET,16 AV DE L'U.R.S.S,False,False,19,16,1,OPEN,1761038138000,43.58295,1.448578
424,424,189,toulouse,00189 - AV. DE MURET - BOUTINON,46 AVENUE DE MURET,False,False,19,16,1,OPEN,1761038007000,43.581793,1.425738
